#aV2009 12 21  0  0   .00000000      96 DD+AD WGS84 FIT  NGA
## 1563  86400.00000000   900.00000000 55186  .0000000000000
+   32     1  2  3  4  5  6  7  8  9 10 11 12 13 14 15 16 17
+         18 19 20 21 22 23 24 25 26 27 28 29 30 31 32  0  0
+          0  0  0  0  0  0  0  0  0  0  0  0  0  0  0  0  0
+          0  0  0  0  0  0  0  0  0  0  0  0  0  0  0  0  0
+          0  0  0  0  0  0  0  0  0  0  0  0  0  0  0  0  0
++         0  0  0  0  0  0  0  0  0  0  0  0  0  0  0  0  0
++         0  0  0  0  0  0  0  0  0  0  0  0  0  0  0  0  0
++         0  0  0  0  0  0  0  0  0  0  0  0  0  0  0  0  0
++         0  0  0  0  0  0  0  0  0  0  0  0  0  0  0  0  0
++         0  0  0  0  0  0  0  0  0  0  0  0  0  0  0  0  0
%c cc cc ccc ccc cccc cccc cccc cccc ccccc ccccc ccccc ccccc
%c cc cc ccc ccc cccc cccc cccc cccc ccccc ccccc ccccc ccccc
%f  0.0000000  0.000000000  0.00000000000  0.000000000000000
%f  0.0000000  0.000000000  0.00000000000  0.000000000000000
%i    0    0    0    0      0      0      0      0         0
%i    0    0    0    0      0      0      0      0         0
/*      NGA, ST. LOUIS,MO.                                  
/*   EPHEMERIS COMPUTED FROM  3 DAYS OF DATA                
/* CCCCCCCCCCCCCCCCCCCCCCCCCCCCCCCCCCCCCCCCCCCCCCCCCCCCCCCCC
/* CCCCCCCCCCCCCCCCCCCCCCCCCCCCCCCCCCCCCCCCCCCCCCCCCCCCCCCCC
*  2009 12 21 14  0   .00000000                                                 
P  1 -17796.272009  17504.340500  -9017.260462    -73.035065                    
V  1 -11099.080827   3451.094302  29030.408452      -.028726                    
P  2 -13562.786509 -13839.511867 -18411.055547    206.227895                    
V  2   1344.643829 -23174.716551  16053.313579       .045265                    
P  3  24770.963540  10008.790841    978.311954    490.966848                    
V  3     68.281467   3957.375807 -30726.297375       .051579                    
P  4  -7261.324769 -23278.296014 -10229.366268   -417.882024                    
V  4   3445.746849 -12888.080870  27684.157080      -.187803                    
P  5 -20714.246753  -1505.397403 -16618.148196    -25.927152                    
V  5  17366.949685 -12010.539543 -20496.800584       .049595                    
P  6  23187.322819  13010.159507  -1095.870110    263.303218                    
V  6  -3074.361102   2429.049360 -31039.502619      -.006850                    
P  7   7565.141348 -22989.590225 -10768.648526      5.621750                    
V  7   2212.412488  13718.468893 -27904.943667      -.006210                    
P  8    931.357591 -26210.595756   1485.325616      1.178094                    
V  8   2425.798098  -1766.801943 -32695.926261       .004750                    
P  9 -13914.019551   6759.117207  20925.210696     95.327887                    
V  9  -1364.598359 -28060.789438   7956.498745       .022649                    
P 10 -17632.070656  -5942.057842 -19248.104830    -30.846906                    
V 10  20553.380505 -12420.788751 -14784.775075      -.008613                    
P 11  13894.228667 -10789.794343  19575.730947    -35.447123                    
V 11   7250.013431  24828.813678   8800.287394      -.019846                    
P 12 -24000.618576  10668.288152   3501.537481   -173.589431                    
V 12   2553.222648  -4429.152985  31619.305816       .050702                    
P 13   7295.020363 -12610.948945 -22332.225589    306.595699                    
V 13  23217.439294  15578.603000  -1233.370363       .000215                    
P 14   9751.776337  18930.314791  16092.966845     -9.484206                    
V 14 -17543.903804  -9829.522323  22268.303668       .046026                    
P 15 -24044.927706  -5382.850807  10070.939997   -317.141425                    
V 15  -9815.134286  -8499.514744 -27960.705036       .014241                    
P 16  15467.758688   7449.755763 -20286.651633    -21.850505                    
V 16 -22307.472515  12920.298360 -11989.564528      -.041980                    
P 17 -10876.771871 -19101.407979  15133.987684    113.942610                    
V 17  17191.669763   8310.649298  22757.245974       .035478                    
P 18 -12692.641732  18526.579725  14140.179149     36.250317                    
V 18 -16955.941631   5903.868906 -23745.236431       .027024                    
P 19  23182.350499   5855.292768  11898.343522     -5.138333                    
V 19  11024.900646  10351.487068 -26376.816682      -.020762                    
P 20  22331.821118 -14303.210249   -859.741735     64.990695                    
V 20   2642.738297   2532.579486  31287.379442      -.008277                    
P 21  -4800.181981  25067.914998  -5753.351261    -28.936403                    
V 21  -3973.376529  -7927.649538 -30340.446252      -.024007                    
P 22   -340.086457  17148.232232  20425.243125    183.495673                    
V 22 -23218.512586  11022.563898  -9793.308560      -.010303                    
P 23  18095.563711  -4467.678983 -19064.621778    383.983761                    
V 23  20087.612830  13223.004514  15694.515601      -.007447                    
P 24 -13173.412253  15452.155783 -17142.645259    246.925368                    
V 24   -564.254227 -21979.297530 -19013.835519       .033265                    
P 25   9184.497519 -19077.469105 -15807.876093     59.731728                    
V 25   3455.229068  20389.793666 -21931.123987       .105548                    
P 26    575.087023  16344.356886  20268.356147     -3.765736                    
V 26 -23014.124363 -14201.344854  12244.121189      -.026207                    
P 27 -15014.749961   2900.473829  22409.369630    110.274292                    
V 27  -1497.384648 -26704.731833   2606.096646       .032684                    
P 28   3125.642070 -17346.672403  20227.859148    -24.514970                    
V 28  22418.082373 -10563.747244 -13120.197920       .004030                    
P 29 -11050.121418  10837.525783 -21490.039627     83.893706                    
V 29 -23113.614835 -14921.501085   4381.272711       .029524                    
P 30 -18576.813142  17677.861188  -7182.857097    203.559252                    
V 30  -8817.870895   2199.784597  29880.285991       .033475                    
P 31   7954.351524  22140.490978 -11957.410088    -57.970868                    
V 31  -2258.673144  15543.396760  26940.443630       .011196                    
P 32  24796.147969  -5840.845692   7280.292704    133.484771                    
V 32  -6840.778131   6268.968076  30143.223611      -.078490                    
EOF
